start=new Date('2022-08-20T00:00:00.000Z').valueOf();
sats=[{"TLE_LINE2":"2 45204  53.0550  92.7057 0001579  76.6760 283.4405 15.06390581138577","MEAN_ELEMENT_THEORY":"SGP4","TIME_SYSTEM":"UTC","TLE_LINE1":"1 45204U 20012AC  22231.88204027 -.00002692  00000-0 -16196-3 0  9998","BSTAR":"-0.00016196000000","RCS_SIZE":"LARGE","NORAD_CAT_ID":"45204","COUNTRY_CODE":"US","ECCENTRICITY":"0.00015790","OBJECT_TYPE":"PAYLOAD","APOAPSIS":"548.336","DECAY_DATE":null,"PERIOD":"95.593","INCLINATION":"53.0550","OBJECT_ID":"2020-012AC","RA_OF_ASC_NODE":"92.7057","EPHEMERIS_TYPE":"0","MEAN_ANOMALY":"283.4405","GP_ID":"210521608","LAUNCH_DATE":"2020-02-17","OBJECT_NAME":"STARLINK-1206","REV_AT_EPOCH":"13857","MEAN_MOTION":"15.06390581","ELEMENT_SET_NO":"999","REF_FRAME":"TEME","EPOCH":"2022-08-19T21:10:08.279328","SITE":"AFETR","FILE":"3540522","PERIAPSIS":"546.149","ARG_OF_PERICENTER":"76.6760","SEMIMAJOR_AXIS":"6925.377","MEAN_MOTION_DDOT":"0.0000000000000","CLASSIFICATION_TYPE":"U","CENTER_NAME":"EARTH","MEAN_MOTION_DOT":"-0.00002692"},{"GP_ID":"210472121","MEAN_ANOMALY":"282.9502","LAUNCH_DATE":"2020-02-17","OBJECT_NAME":"STARLINK-1208","REV_AT_EPOCH":"13936","MEAN_MOTION":"15.06410868","ELEMENT_SET_NO":"999","REF_FRAME":"TEME","EPOCH":"2022-08-18T18:37:47.175744","SITE":"AFETR","FILE":"3539615","PERIAPSIS":"546.207","ARG_OF_PERICENTER":"77.1644","SEMIMAJOR_AXIS":"6925.315","MEAN_MOTION_DDOT":"0.0000000000000","CLASSIFICATION_TYPE":"U","CENTER_NAME":"EARTH","MEAN_MOTION_DOT":"0.00002776","TLE_LINE2":"2 45205  53.0548  97.6563 0001406  77.1644 282.9502 15.06410868139368","MEAN_ELEMENT_THEORY":"SGP4","TIME_SYSTEM":"UTC","BSTAR":"0.00020513000000","TLE_LINE1":"1 45205U 20012AD  22230.77624046  .00002776  00000-0  20513-3 0  9992","RCS_SIZE":"LARGE","NORAD_CAT_ID":"45205","COUNTRY_CODE":"US","ECCENTRICITY":"0.00014060","OBJECT_TYPE":"PAYLOAD","APOAPSIS":"548.154","DECAY_DATE":null,"PERIOD":"95.591","INCLINATION":"53.0548","OBJECT_ID":"2020-012AD","EPHEMERIS_TYPE":"0","RA_OF_ASC_NODE":"97.6563"},{"PERIAPSIS":"545.838","ARG_OF_PERICENTER":"78.6195","EPOCH":"2022-08-19T06:26:22.897248","FILE":"3540406","SITE":"AFETR","MEAN_MOTION":"15.06400455","ELEMENT_SET_NO":"999","REF_FRAME":"TEME","GP_ID":"210514459","MEAN_ANOMALY":"281.5017","LAUNCH_DATE":"2020-02-17","REV_AT_EPOCH":"13874","OBJECT_NAME":"STARLINK-1209","MEAN_MOTION_DOT":"0.00001254","CLASSIFICATION_TYPE":"U","CENTER_NAME":"EARTH","SEMIMAJOR_AXIS":"6925.347","MEAN_MOTION_DDOT":"0.0000000000000","COUNTRY_CODE":"US","ECCENTRICITY":"0.00019840","TLE_LINE1":"1 45206U 20012AE  22231.26832057  .00001254  00000-0  10309-3 0  9993","BSTAR":"0.00010309000000","RCS_SIZE":"LARGE","NORAD_CAT_ID":"45206","MEAN_ELEMENT_THEORY":"SGP4","TLE_LINE2":"2 45206  53.0534  75.4482 0001984  78.6195 281.5017 15.06400455138744","TIME_SYSTEM":"UTC","OBJECT_ID":"2020-012AE","RA_OF_ASC_NODE":"75.4482","EPHEMERIS_TYPE":"0","INCLINATION":"53.0534","APOAPSIS":"548.586","DECAY_DATE":null,"PERIOD":"95.592","OBJECT_TYPE":"PAYLOAD"},{"TLE_LINE2":"2 45207  53.0563  95.1798 0001330  78.7191 281.3947 15.06405316139425","MEAN_ELEMENT_THEORY":"SGP4","TIME_SYSTEM":"UTC","BSTAR":"0.00012401000000","TLE_LINE1":"1 45207U 20012AF  22231.32913172  .00001566  00000-0  12401-3 0  9990","RCS_SIZE":"LARGE","NORAD_CAT_ID":"45207","COUNTRY_CODE":"US","ECCENTRICITY":"0.00013300","OBJECT_TYPE":"PAYLOAD","APOAPSIS":"548.118","DECAY_DATE":null,"PERIOD":"95.592","INCLINATION":"53.0563","OBJECT_ID":"2020-012AF","EPHEMERIS_TYPE":"0","RA_OF_ASC_NODE":"95.1798","GP_ID":"210512721","MEAN_ANOMALY":"281.3947","LAUNCH_DATE":"2020-02-17","REV_AT_EPOCH":"13942","OBJECT_NAME":"STARLINK-1210","MEAN_MOTION":"15.06405316","ELEMENT_SET_NO":"999","REF_FRAME":"TEME","EPOCH":"2022-08-19T07:53:56.980608","FILE":"3540406","SITE":"AFETR","PERIAPSIS":"546.276","ARG_OF_PERICENTER":"78.7191","SEMIMAJOR_AXIS":"6925.332","MEAN_MOTION_DDOT":"0.0000000000000","CLASSIFICATION_TYPE":"U","CENTER_NAME":"EARTH","MEAN_MOTION_DOT":"0.00001566"},{"ECCENTRICITY":"0.00010020","COUNTRY_CODE":"US","NORAD_CAT_ID":"45208","RCS_SIZE":"LARGE","BSTAR":"0.00011600000000","TLE_LINE1":"1 45208U 20012AG  22231.32194966  .00001412  00000-0  11600-3 0  9993","TIME_SYSTEM":"UTC","MEAN_ELEMENT_THEORY":"SGP4","TLE_LINE2":"2 45208  52.9983  95.2213 0001002  90.3811 269.7292 15.05590733139316","RA_OF_ASC_NODE":"95.2213","EPHEMERIS_TYPE":"0","OBJECT_ID":"2020-012AG","INCLINATION":"52.9983","PERIOD":"95.644","DECAY_DATE":null,"APOAPSIS":"550.389","OBJECT_TYPE":"PAYLOAD","ARG_OF_PERICENTER":"90.3811","PERIAPSIS":"549.001","FILE":"3540406","SITE":"AFETR","EPOCH":"2022-08-19T07:43:36.450624","ELEMENT_SET_NO":"999","REF_FRAME":"TEME","MEAN_MOTION":"15.05590733","OBJECT_NAME":"STARLINK-1211","REV_AT_EPOCH":"13931","LAUNCH_DATE":"2020-02-17","GP_ID":"210512970","MEAN_ANOMALY":"269.7292","MEAN_MOTION_DOT":"0.00001412","CENTER_NAME":"EARTH","CLASSIFICATION_TYPE":"U","MEAN_MOTION_DDOT":"0.0000000000000","SEMIMAJOR_AXIS":"6927.830"},{"OBJECT_TYPE":"PAYLOAD","PERIOD":"91.270","APOAPSIS":"343.052","DECAY_DATE":null,"INCLINATION":"53.0399","RA_OF_ASC_NODE":"247.9843","EPHEMERIS_TYPE":"0","OBJECT_ID":"2020-012AH","TLE_LINE2":"2 45209  53.0399 247.9843 0009210 342.8581  17.2126 15.77732921142304","MEAN_ELEMENT_THEORY":"SGP4","TIME_SYSTEM":"UTC","RCS_SIZE":"LARGE","NORAD_CAT_ID":"45209","BSTAR":"0.00037438000000","TLE_LINE1":"1 45209U 20012AH  22231.76732196  .00064056  00000-0  37438-3 0  9995","COUNTRY_CODE":"US","ECCENTRICITY":"0.00092100","MEAN_MOTION_DDOT":"0.0000000000000","SEMIMAJOR_AXIS":"6715.003","CLASSIFICATION_TYPE":"U","CENTER_NAME":"EARTH","MEAN_MOTION_DOT":"0.00064056","LAUNCH_DATE":"2020-02-17","REV_AT_EPOCH":"14230","OBJECT_NAME":"STARLINK-1218","MEAN_ANOMALY":"17.2126","GP_ID":"210544775","REF_FRAME":"TEME","ELEMENT_SET_NO":"999","MEAN_MOTION":"15.77732921","SITE":"AFETR","FILE":"3540705","EPOCH":"2022-08-19T18:24:56.617344","ARG_OF_PERICENTER":"342.8581","PERIAPSIS":"330.683"},{"NORAD_CAT_ID":"45210","RCS_SIZE":"LARGE","BSTAR":"-0.00008584300000","TLE_LINE1":"1 45210U 20012AJ  22231.73090485 -.00001560  00000-0 -85843-4 0  9999","TIME_SYSTEM":"UTC","MEAN_ELEMENT_THEORY":"SGP4","TLE_LINE2":"2 45210  53.0535  93.3947 0001454  80.8516 279.2637 15.06395607139373","ECCENTRICITY":"0.00014540","COUNTRY_CODE":"US","PERIOD":"95.592","DECAY_DATE":null,"APOAPSIS":"548.234","OBJECT_TYPE":"PAYLOAD","EPHEMERIS_TYPE":"0","RA_OF_ASC_NODE":"93.3947","OBJECT_ID":"2020-012AJ","INCLINATION":"53.0535","ELEMENT_SET_NO":"999","REF_FRAME":"TEME","MEAN_MOTION":"15.06395607","OBJECT_NAME":"STARLINK-1219","REV_AT_EPOCH":"13937","LAUNCH_DATE":"2020-02-17","MEAN_ANOMALY":"279.2637","GP_ID":"210544024","ARG_OF_PERICENTER":"80.8516","PERIAPSIS":"546.220","SITE":"AFETR","FILE":"3540705","EPOCH":"2022-08-19T17:32:30.179040","MEAN_MOTION_DDOT":"0.0000000000000","SEMIMAJOR_AXIS":"6925.362","MEAN_MOTION_DOT":"-0.00001560","CENTER_NAME":"EARTH","CLASSIFICATION_TYPE":"U"},{"ECCENTRICITY":"0.00013770","COUNTRY_CODE":"US","BSTAR":"0.00011676000000","TLE_LINE1":"1 45212U 20012AL  22231.10060425  .00001458  00000-0  11676-3 0  9999","NORAD_CAT_ID":"45212","RCS_SIZE":"LARGE","TIME_SYSTEM":"UTC","MEAN_ELEMENT_THEORY":"SGP4","TLE_LINE2":"2 45212  53.0565  96.2263 0001377  71.6217 288.4921 15.06405643139348","OBJECT_ID":"2020-012AL","RA_OF_ASC_NODE":"96.2263","EPHEMERIS_TYPE":"0","INCLINATION":"53.0565","DECAY_DATE":null,"APOAPSIS":"548.150","PERIOD":"95.592","OBJECT_TYPE":"PAYLOAD","PERIAPSIS":"546.243","ARG_OF_PERICENTER":"71.6217","EPOCH":"2022-08-19T02:24:52.207200","FILE":"3540406","SITE":"AFETR","MEAN_MOTION":"15.06405643","ELEMENT_SET_NO":"999","REF_FRAME":"TEME","MEAN_ANOMALY":"288.4921","GP_ID":"210513220","OBJECT_NAME":"STARLINK-1231","REV_AT_EPOCH":"13934","LAUNCH_DATE":"2020-02-17","MEAN_MOTION_DOT":"0.00001458","CENTER_NAME":"EARTH","CLASSIFICATION_TYPE":"U","SEMIMAJOR_AXIS":"6925.331","MEAN_MOTION_DDOT":"0.0000000000000"},{"OBJECT_TYPE":"PAYLOAD","APOAPSIS":"446.930","DECAY_DATE":null,"PERIOD":"93.461","INCLINATION":"53.0594","OBJECT_ID":"2020-012AM","RA_OF_ASC_NODE":"48.0224","EPHEMERIS_TYPE":"0","MEAN_ELEMENT_THEORY":"SGP4","TLE_LINE2":"2 45213  53.0594  48.0224 0004418  76.9330 283.2167 15.40743336140121","TIME_SYSTEM":"UTC","TLE_LINE1":"1 45213U 20012AM  22231.60161656  .00008650  00000-0  21786-3 0  9997","BSTAR":"0.00021786000000","RCS_SIZE":"LARGE","NORAD_CAT_ID":"45213","COUNTRY_CODE":"US","ECCENTRICITY":"0.00044180","SEMIMAJOR_AXIS":"6822.051","MEAN_MOTION_DDOT":"0.0000000000000","CLASSIFICATION_TYPE":"U","CENTER_NAME":"EARTH","MEAN_MOTION_DOT":"0.00008650","GP_ID":"210545024","MEAN_ANOMALY":"283.2167","LAUNCH_DATE":"2020-02-17","OBJECT_NAME":"STARLINK-1232","REV_AT_EPOCH":"14012","MEAN_MOTION":"15.40743336","ELEMENT_SET_NO":"999","REF_FRAME":"TEME","EPOCH":"2022-08-19T14:26:19.670784","SITE":"AFETR","FILE":"3540705","PERIAPSIS":"440.902","ARG_OF_PERICENTER":"76.9330"},{"GP_ID":"210545275","MEAN_ANOMALY":"287.9773","LAUNCH_DATE":"2020-02-17","OBJECT_NAME":"STARLINK-1233","REV_AT_EPOCH":"13950","MEAN_MOTION":"15.06403799","ELEMENT_SET_NO":"999","REF_FRAME":"TEME","EPOCH":"2022-08-19T20:52:50.346624","SITE":"AFETR","FILE":"3540705","PERIAPSIS":"546.333","ARG_OF_PERICENTER":"72.1352","SEMIMAJOR_AXIS":"6925.337","MEAN_MOTION_DDOT":"0.0000000000000","CLASSIFICATION_TYPE":"U","CENTER_NAME":"EARTH","MEAN_MOTION_DOT":"0.00000240","MEAN_ELEMENT_THEORY":"SGP4","TLE_LINE2":"2 45214  53.0534  92.7470 0001254  72.1352 287.9773 15.06403799139504","TIME_SYSTEM":"UTC","BSTAR":"0.00003501400000","TLE_LINE1":"1 45214U 20012AN  22231.87002716  .00000240  00000-0  35014-4 0  9995","RCS_SIZE":"LARGE","NORAD_CAT_ID":"45214","COUNTRY_CODE":"US","ECCENTRICITY":"0.00012540","OBJECT_TYPE":"PAYLOAD","APOAPSIS":"548.070","DECAY_DATE":null,"PERIOD":"95.592","INCLINATION":"53.0534","OBJECT_ID":"2020-012AN","RA_OF_ASC_NODE":"92.7470","EPHEMERIS_TYPE":"0"}];
